satname,norad_id,inclination_deg,eccentricity,mean_motion_rev_per_day,perigee_km,apogee_km,l1,l2
STARLINK-1008,44714,53.1556,0.0003244,15.33929972,461.88099731173406,466.3202410790682,1 44714U 19074B   26096.10229143  .00089763  00000+0  26755-2 0  9995,2 44714  53.1556  51.0210 0003244 118.4382 241.6947 15.33929972353077
STARLINK-1012,44718,53.1583,0.0003209,15.33150261,464.2238324388836,468.6166692824863,1 44718U 19074F   26096.09697221  .00080852  00000+0  24740-2 0  9995,2 44718  53.1583  51.2648 0003209 114.0229 246.1109 15.33150261353067
STARLINK-1017,44723,53.052,0.0003473,15.26827399,482.919906899554,487.6872527262922,1 44723U 19074L   26096.06206242  .00070149  00000+0  26138-2 0  9998,2 44723  53.0520  44.9340 0003473 122.6119 237.5215 15.26827399353143
STARLINK-1019,44724,53.0389,0.0002581,15.9155481,296.2082668122739,299.6544532997341,1 44724U 19074M   26096.25002315  .00229340  30657-4  70039-3 0  9990,2 44724  53.0389 357.2156 0002581 231.7790 307.7184 15.91554810  5964
STARLINK-1020,44725,53.1602,0.0007667,15.29856809,470.9847166183672,481.4952182602383,1 44725U 19074N   26096.22032103 -.02058030  00000+0 -77698-1 0  9996,2 44725  53.1602  75.8523 0007667 145.9248 214.2247 15.29856809352724
STARLINK-1031,44736,53.0279,0.0005789,16.19382655,217.40818429252613,225.04892973443748,1 44736U 19074Z   26096.92170057  .01505782  11794-4  79420-3 0  9998,2 44736  53.0279 333.9625 0005789 240.7772 119.2687 16.19382655354216
STARLINK-1036,44741,53.046,0.00053,15.6202749,378.2184417132121,385.3839762147136,1 44741U 19074AE  26096.25002315  .00182869  00000+0  20135-2 0  9998,2 44741  53.0460  54.5572 0005300  70.5042 302.4267 15.62027490  5931
STARLINK-1039,44744,53.0631,0.0001307,15.24166329,492.3918328689406,494.188023868016,1 44744U 19074AH  26095.72019532  .00067051  00000+0  27080-2 0  9992,2 44744  53.0631  90.6422 0001307  26.2207 333.8856 15.24166329352472
STARLINK-1042,44747,53.0437,0.0001205,15.51383356,411.8678914980219,413.50447988577343,1 44747U 19074AL  26096.04717848  .00027941  00000+0  47271-3 0  9995,2 44747  53.0437 323.3889 0001205 176.5140 183.5877 15.51383356354313
STARLINK-1043,44748,53.0523,0.0002709,15.55612958,398.5351232744415,402.20771913705084,1 44748U 19074AM  26096.10901442  .00038159  00000+0  55087-3 0  9995,2 44748  53.0523  62.0197 0002709 107.8195 252.3111 15.55612958352913
STARLINK-1046,44751,53.0516,0.0001677,15.46985202,424.4102092565936,426.69216627477,1 44751U 19074AQ  26096.23046028  .00113667  00000+0  21924-2 0  9993,2 44751  53.0516  79.6787 0001677 307.4793  52.6061 15.46985202352676
STARLINK-1047,44752,53.0704,0.000186,15.33285215,464.7456105589181,467.2916364508628,1 44752U 19074AR  26096.07573427  .00016618  00000+0  51973-3 0  9990,2 44752  53.0704  18.0119 0001860 357.7590   2.3402 15.33285215353540
STARLINK-1048,44753,53.0505,0.0003269,15.58665081,389.3065725584247,393.73257402604213,1 44753U 19074AS  26096.20502882  .00080302  00000+0  10223-2 0  9996,2 44753  53.0505  35.6211 0003269 117.6840 242.4504 15.58665081353285
STARLINK-1063,44768,53.1582,0.0003493,15.32894847,464.7894628644008,469.5716016924516,1 44768U 19074BH  26096.23059711  .00072601  00000+0  22430-2 0  9999,2 44768  53.1582  91.2614 0003493  84.9804 275.1597 15.32894847352535
STARLINK-1067,44771,53.0478,0.0006647,15.63299902,373.6417546070925,382.6235394758687,1 44771U 19074BL  26096.25002315  .00167240  00000+0  17556-2 0  9990,2 44771  53.0478  69.9449 0006647  78.0912 316.0656 15.63299902  5933
STARLINK-1068,44772,53.0469,0.0004284,15.67702854,362.58759713680047,368.36552523602495,1 44772U 19074BM  26096.19663469  .00072221  00000+0  64659-3 0  9998,2 44772  53.0469  44.7294 0004284  48.6384 311.5000 15.67702854353156
STARLINK-1114,44927,53.0459,0.0004272,15.55584028,397.5596485275146,403.35127792809635,1 44927U 20001P   26096.29205637  .00124280  00000+0  17609-2 0  9997,2 44927  53.0459 196.3695 0004272 257.2912 102.7621 15.55584028344380
STARLINK-1123,44930,53.1473,0.0002512,15.30661038,472.117622257726,475.56005491903215,1 44930U 20001S   26095.62737108  .00067672  00000+0  22439-2 0  9998,2 44930  53.1473 220.1208 0002512  15.4319 344.6758 15.30661038343991
STARLINK-1094,44941,53.1574,0.0001784,15.32364746,467.5376520990394,469.98062464120994,1 44941U 20001AD  26095.97448368  .00072693  00000+0  22836-2 0  9995,2 44941  53.1574 192.7098 0001784  30.1933 329.9171 15.32364746344413
STARLINK-1122,44949,53.1587,0.0001172,15.30180622,474.46970960130875,476.0761488887247,1 44949U 20001AM  26095.55419711  .00000127  00000+0  16426-4 0  9990,2 44949  53.1587 194.8238 0001172  81.1147 278.9986 15.30180622344344
STARLINK-1080,44961,53.0485,0.0001499,15.52319181,408.9391169554556,410.9741874323836,1 44961U 20001AZ  26096.15597525  .00123889  00000+0  19772-2 0  9997,2 44961  53.0485 156.4818 0001499 275.3190  84.7648 15.52319181344930
STARLINK-1090,44968,53.1522,0.0002743,15.31182551,470.4038479603987,474.1619883274925,1 44968U 20001BG  26096.24434630  .00069542  00000+0  22680-2 0  9998,2 44968  53.1522 178.4991 0002743  23.5623 336.5503 15.31182551344634
STARLINK-1132,45044,53.1546,0.000472,15.47200919,421.70773228946746,428.1298169407037,1 45044U 20006A   26096.21437662  .00097613  00000+0  18735-2 0  9990,2 45044  53.1546 123.1901 0004720 352.2500   7.8435 15.47200919341182
STARLINK-1131,45047,53.1578,0.0001676,15.31229034,470.9961730519235,473.2923873370446,1 45047U 20006D   26095.44261719  .00078076  00000+0  25384-2 0  9995,2 45047  53.1578 156.6873 0001676  61.5903 298.5267 15.31229034340647
STARLINK-1134,45048,53.0299,0.0021203,15.47947904,408.31011061046775,437.1498671635427,1 45048U 20006E   26096.30397037  .01225383  00000+0  20864-1 0  9998,2 45048  53.0299 106.6453 0021203 112.8317 247.4932 15.47947904341411
STARLINK-1156,45054,53.158,0.0001307,15.30192411,474.34199282197915,476.1334649761129,1 45054U 20006L   26096.18984971  .00006247  00000+0  22293-3 0  9995,2 45054  53.1580 153.2576 0001307  99.1425 260.9724 15.30192411340758
STARLINK-1159,45057,53.0389,0.0003603,15.9301145,291.4571144372467,296.2649562215056,1 45057U 20006P   26096.25002315  .00244487  33795-4  69121-3 0  9992,2 45057  53.0389  95.0765 0003603  59.0450 121.9515 15.93011450  5950
STARLINK-1166,45060,53.0483,0.0002858,15.5004,414.66723240527426,418.5511093165378,1 45060U 20006S   26096.28272572  .00110372  00000+0  19144-2 0  9995,2 45060  53.0483 140.7783 0002858 350.5662   9.5292 15.50040000340931
STARLINK-1169,45061,53.1576,0.0003032,15.32312966,466.8373589400717,470.9894102933031,1 45061U 20006T   26095.88431401  .00034268  00000+0  10899-2 0  9996,2 45061  53.1576 154.5479 0003032  41.0179 319.1050 15.32312966340712
STARLINK-1171,45062,53.0427,0.000474,15.67013151,364.25775520190746,370.6525765751703,1 45062U 20006U   26096.03875692  .00063130  00000+0  58245-3 0  9997,2 45062  53.0427 115.1799 0004740  51.4903 308.6537 15.67013151341279
STARLINK-1133,45064,53.1588,0.0001167,15.3018689,474.45442304105563,476.0540045503549,1 45064U 20006W   26096.09765928  .00004821  00000+0  17487-3 0  9990,2 45064  53.1588 130.4914 0001167  70.5568 289.5559 15.30186890341078
STARLINK-1167,45071,53.1561,0.0004042,15.31778249,467.7385271547919,473.27497076144937,1 45071U 20006AD  26096.12311419  .00070012  00000+0  22410-2 0  9990,2 45071  53.1561 130.3994 0004042  44.7946 315.3381 15.31778249341079
STARLINK-1168,45072,53.16,0.0001155,15.3018002,474.4831576925926,476.0662958014709,1 45072U 20006AE  26096.07872841 -.00001393  00000+0 -34940-4 0  9997,2 45072  53.1600 130.7878 0001155  93.2844 266.8289 15.30180020341066
STARLINK-1172,45074,53.1545,0.00032,15.32828741,465.1867773721451,469.5679065510012,1 45074U 20006AG  26096.12007062  .00076880  00000+0  23781-2 0  9990,2 45074  53.1545 130.1933 0003200  51.2834 308.8454 15.32828741341071
STARLINK-1153,45080,53.1586,0.0003612,15.31861444,467.78514077340424,472.73242188583663,1 45080U 20006AN  26096.23761510  .00068574  00000+0  21900-2 0  9996,2 45080  53.1586 129.7825 0003612  52.9739 307.1593 15.31861444341090
STARLINK-1151,45081,53.0506,0.0004583,15.69182603,358.14772662031555,364.3250362617446,1 45081U 20006AP  26096.18556663  .00074763  00000+0  62963-3 0  9994,2 45081  53.0506 104.4220 0004583  61.8317 298.3162 15.69182603341435
STARLINK-1185,45087,53.1603,0.000161,15.39321979,447.014049549437,449.21210207384865,1 45087U 20006AV  26095.46953353  .00075994  00000+0  19095-2 0  9991,2 45087  53.1603 117.0627 0001610  85.2776 274.8413 15.39321979341209
STARLINK-1183,45088,53.1603,0.0001395,15.30190832,474.2863971190791,476.19848998382895,1 45088U 20006AW  26095.46656005 -.00000940  00000+0 -19607-4 0  9998,2 45088  53.1603 118.2043 0001395  89.5262 270.5898 15.30190832341182
STARLINK-1152,45096,53.0369,0.0002692,15.4223452,437.68071560395856,441.3513399941248,1 45096U 20006BE  26096.23986287  .00100846  00000+0  22905-2 0  9998,2 45096  53.0369  76.1787 0002692  11.9797 348.1271 15.42234520341834
STARLINK-1184,45098,53.0508,0.0002205,15.11680987,529.5497501445379,532.5967118564085,1 45098U 20006BG  26095.78661707  .00031259  00000+0  18250-2 0  9995,2 45098  53.0508 122.9150 0002205 214.0644 146.0206 15.11680987341136
STARLINK-1193,45100,53.0508,0.0006814,15.5999015,383.07532936507505,392.295792351013,1 45100U 20006BJ  26096.23063328  .00050104  00000+0  61080-3 0  9995,2 45100  53.0508  96.6466 0006814  54.3113 305.8532 15.59990150341543
STARLINK-1143,45179,53.0458,0.0004337,15.70292686,355.1383531861775,360.9813303267174,1 45179U 20012B   26096.00284410  .00085550  00000+0  68659-3 0  9992,2 45179  53.0458 195.5920 0004337 258.2516 101.8015 15.70292686340201
STARLINK-1202,45183,53.1568,0.0001096,15.30195723,474.4767110136918,475.97896858657714,1 45183U 20012F   26095.92476935  .00008433  00000+0  29655-3 0  9990,2 45183  53.1568 272.7446 0001096 105.3368 254.7754 15.30195723339123
